{
  "type": "FeatureCollection",
  "features": [
    {
      "type": "Feature",
      "properties": {
        "norad_id": 66467,
        "name": "STARLINK-35682",
        "group": "last-30-days",
        "lat": -17.25288975041816,
        "lon": 71.62209871393866,
        "alt_km": 423.44005251416456,
        "timestamp": "2025-12-09T07:41:31.971813+00:00",
        "meta_object_name": "STARLINK-35682",
        "meta_object_id": "2025-262M",
        "meta_epoch": "2025-12-08T22:00:03.000096",
        "meta_mean_motion": 15.49891156,
        "meta_eccentricity": 0.00012353,
        "meta_inclination": 43.0005,
        "meta_ra_of_asc_node": 93.4462,
        "meta_arg_of_pericenter": 272.7813,
        "meta_mean_anomaly": 327.06,
        "meta_ephemeris_type": 0,
        "meta_classification_type": "U",
        "meta_norad_cat_id": 66467,
        "meta_element_set_no": 999,
        "meta_rev_at_epoch": 502,
        "meta_bstar": -0.041059972,
        "meta_mean_motion_dot": -0.02088254,
        "meta_mean_motion_ddot": 0,
        "tle_line1": "1 66467U 25262M   25342.91670139 -.02088254  00000+0 -41060-1 0  9990",
        "tle_line2": "2 66467  43.0005  93.4462 0001235 272.7813 327.0600 15.49891156  5026"
      },
      "geometry": {
        "type": "Point",
        "coordinates": [
          71.62209871393866,
          -17.25288975041816
        ]
      }
    },
    {
      "type": "Feature",
      "properties": {
        "norad_id": 66468,
        "name": "STARLINK-35331",
        "group": "last-30-days",
        "lat": -11.80553514590787,
        "lon": 78.10682822479004,
        "alt_km": 415.78561490681386,
        "timestamp": "2025-12-09T07:41:31.971825+00:00",
        "meta_object_name": "STARLINK-35331",
        "meta_object_id": "2025-262N",
        "meta_epoch": "2025-12-08T22:00:03.000096",
        "meta_mean_motion": 15.50609003,
        "meta_eccentricity": 0.00016322,
        "meta_inclination": 43.0004,
        "meta_ra_of_asc_node": 93.4308,
        "meta_arg_of_pericenter": 273.1706,
        "meta_mean_anomaly": 332.6276,
        "meta_ephemeris_type": 0,
        "meta_classification_type": "U",
        "meta_norad_cat_id": 66468,
        "meta_element_set_no": 999,
        "meta_rev_at_epoch": 502,
        "meta_bstar": -0.00081774188,
        "meta_mean_motion_dot": -0.00048073,
        "meta_mean_motion_ddot": 0,
        "tle_line1": "1 66468U 25262N   25342.91670139 -.00048073  00000+0 -81774-3 0  9992",
        "tle_line2": "2 66468  43.0004  93.4308 0001632 273.1706 332.6276 15.50609003  5023"
      },
      "geometry": {
        "type": "Point",
        "coordinates": [
          78.10682822479004,
          -11.80553514590787
        ]
      }
    },
    {
      "type": "Feature",
      "properties": {
        "norad_id": 66469,
        "name": "STARLINK-35451",
        "group": "last-30-days",
        "lat": -7.965670457616503,
        "lon": 82.41688505326135,
        "alt_km": 415.4203806053074,
        "timestamp": "2025-12-09T07:41:31.971835+00:00",
        "meta_object_name": "STARLINK-35451",
        "meta_object_id": "2025-262P",
        "meta_epoch": "2025-12-08T22:00:03.000096",
        "meta_mean_motion": 15.50589767,
        "meta_eccentricity": 0.00014689,
        "meta_inclination": 43.0006,
        "meta_ra_of_asc_node": 93.4156,
        "meta_arg_of_pericenter": 281.635,
        "meta_mean_anomaly": 329.9298,
        "meta_ephemeris_type": 0,
        "meta_classification_type": "U",
        "meta_norad_cat_id": 66469,
        "meta_element_set_no": 999,
        "meta_rev_at_epoch": 502,
        "meta_bstar": -0.00080783159,
        "meta_mean_motion_dot": -0.00047465,
        "meta_mean_motion_ddot": 0,
        "tle_line1": "1 66469U 25262P   25342.91670139 -.00047465  00000+0 -80783-3 0  9996",
        "tle_line2": "2 66469  43.0006  93.4156 0001468 281.6350 329.9298 15.50589767  5020"
      },
      "geometry": {
        "type": "Point",
        "coordinates": [
          82.41688505326135,
          -7.965670457616503
        ]
      }
    },
    {
      "type": "Feature",
      "properties": {
        "norad_id": 66470,
        "name": "STARLINK-35655",
        "group": "last-30-days",
        "lat": -10.532852063711555,
        "lon": 79.55379896436199,
        "alt_km": 415.84136515169666,
        "timestamp": "2025-12-09T07:41:31.971845+00:00",
        "meta_object_name": "STARLINK-35655",
        "meta_object_id": "2025-262Q",
        "meta_epoch": "2025-12-08T22:00:03.000096",
        "meta_mean_motion": 15.5064558,
        "meta_eccentricity": 0.00015377,
        "meta_inclination": 43.0004,
        "meta_ra_of_asc_node": 93.4257,
        "meta_arg_of_pericenter": 270.8577,
        "meta_mean_anomaly": 336.8502,
        "meta_ephemeris_type": 0,
        "meta_classification_type": "U",
        "meta_norad_cat_id": 66470,
        "meta_element_set_no": 999,
        "meta_rev_at_epoch": 502,
        "meta_bstar": -0.002317531,
        "meta_mean_motion_dot": -0.00134313,
        "meta_mean_motion_ddot": 0,
        "tle_line1": "1 66470U 25262Q   25342.91670139 -.00134313  00000+0 -23175-2 0  9998",
        "tle_line2": "2 66470  43.0004  93.4257 0001537 270.8577 336.8502 15.50645580  5021"
      },
      "geometry": {
        "type": "Point",
        "coordinates": [
          79.55379896436199,
          -10.532852063711555
        ]
      }
    },
    {
      "type": "Feature",
      "properties": {
        "norad_id": 66471,
        "name": "STARLINK-35569",
        "group": "last-30-days",
        "lat": -9.24839774093477,
        "lon": 80.99503764214978,
        "alt_km": 415.6195466589779,
        "timestamp": "2025-12-09T07:41:31.971855+00:00",
        "meta_object_name": "STARLINK-35569",
        "meta_object_id": "2025-262R",
        "meta_epoch": "2025-12-08T22:00:03.000096",
        "meta_mean_motion": 15.50599581,
        "meta_eccentricity": 0.00014898,
        "meta_inclination": 43.0005,
        "meta_ra_of_asc_node": 93.4209,
        "meta_arg_of_pericenter": 277.481,
        "meta_mean_anomaly": 332.1755,
        "meta_ephemeris_type": 0,
        "meta_classification_type": "U",
        "meta_norad_cat_id": 66471,
        "meta_element_set_no": 999,
        "meta_rev_at_epoch": 502,
        "meta_bstar": -0.0012119553,
        "meta_mean_motion_dot": -0.00070853,
        "meta_mean_motion_ddot": 0,
        "tle_line1": "1 66471U 25262R   25342.91670139 -.00070853  00000+0 -12120-2 0  9995",
        "tle_line2": "2 66471  43.0005  93.4209 0001489 277.4810 332.1755 15.50599581  5027"
      },
      "geometry": {
        "type": "Point",
        "coordinates": [
          80.99503764214978,
          -9.24839774093477
        ]
      }
    },
    {
      "type": "Feature",
      "properties": {
        "norad_id": 66472,
        "name": "STARLINK-35567",
        "group": "last-30-days",
        "lat": -6.667375153429557,
        "lon": 83.84189288569605,
        "alt_km": 415.4252357483474,
        "timestamp": "2025-12-09T07:41:31.971869+00:00",
        "meta_object_name": "STARLINK-35567",
        "meta_object_id": "2025-262S",
        "meta_epoch": "2025-12-08T22:00:03.000096",
        "meta_mean_motion": 15.50636724,
        "meta_eccentricity": 0.00015646,
        "meta_inclination": 43.0004,
        "meta_ra_of_asc_node": 93.4108,
        "meta_arg_of_pericenter": 274.4327,
        "meta_mean_anomaly": 339.0263,
        "meta_ephemeris_type": 0,
        "meta_classification_type": "U",
        "meta_norad_cat_id": 66472,
        "meta_element_set_no": 999,
        "meta_rev_at_epoch": 502,
        "meta_bstar": -0.0020178875,
        "meta_mean_motion_dot": -0.00117208,
        "meta_mean_motion_ddot": 0,
        "tle_line1": "1 66472U 25262S   25342.91670139 -.00117208  00000+0 -20179-2 0  9995",
        "tle_line2": "2 66472  43.0004  93.4108 0001564 274.4327 339.0263 15.50636724  5020"
      },
      "geometry": {
        "type": "Point",
        "coordinates": [
          83.84189288569605,
          -6.667375153429557
        ]
      }
    },
    {
      "type": "Feature",
      "properties": {
        "norad_id": 66473,
        "name": "STARLINK-35568",
        "group": "last-30-days",
        "lat": -5.36776866726965,
        "lon": 85.25626473008865,
        "alt_km": 415.3893833808952,
        "timestamp": "2025-12-09T07:41:31.971879+00:00",
        "meta_object_name": "STARLINK-35568",
        "meta_object_id": "2025-262T",
        "meta_epoch": "2025-12-08T22:00:03.000096",
        "meta_mean_motion": 15.50635424,
        "meta_eccentricity": 0.00015066,
        "meta_inclination": 43.0005,
        "meta_ra_of_asc_node": 93.4058,
        "meta_arg_of_pericenter": 270.2734,
        "meta_mean_anomaly": 345.1054,
        "meta_ephemeris_type": 0,
        "meta_classification_type": "U",
        "meta_norad_cat_id": 66473,
        "meta_element_set_no": 999,
        "meta_rev_at_epoch": 502,
        "meta_bstar": -0.0019823768,
        "meta_mean_motion_dot": -0.00115175,
        "meta_mean_motion_ddot": 0,
        "tle_line1": "1 66473U 25262T   25342.91670139 -.00115175  00000+0 -19824-2 0  9992",
        "tle_line2": "2 66473  43.0005  93.4058 0001506 270.2734 345.1054 15.50635424  5020"
      },
      "geometry": {
        "type": "Point",
        "coordinates": [
          85.25626473008865,
          -5.36776866726965
        ]
      }
    }
  ]
}